{
  "norad_id": 66184,
  "name": "STARLINK-35317",
  "history": [
    {
      "epoch": "2026-03-28T13:48:57.811104",
      "apogee_km": 475.9710154643326,
      "perigee_km": 474.01239128090856,
      "latitude_deg": -53.13899606474368,
      "longitude_deg": 133.66423455998302,
      "semi_major_axis_km": 6853.12870337262,
      "eccentricity": 0.0001429,
      "inclination_deg": 53.1593,
      "raan_deg": 157.6498,
      "arg_perigee_deg": 76.5935,
      "mean_anomaly_deg": 283.5225,
      "mean_motion_rev_day": 15.30274812
    },
    {
      "epoch": "2026-03-29T03:55:26.712768",
      "apogee_km": 477.4228487911678,
      "perigee_km": 472.8448638591426,
      "latitude_deg": 53.156506875938625,
      "longitude_deg": -169.90365248010494,
      "semi_major_axis_km": 6853.270856325154,
      "eccentricity": 0.000334,
      "inclination_deg": 53.1583,
      "raan_deg": 154.9196,
      "arg_perigee_deg": 81.4282,
      "mean_anomaly_deg": 278.7097,
      "mean_motion_rev_day": 15.302272
    }
  ]
}